{
  "norad_id": 55675,
  "name": "STARLINK-5232",
  "history": [
    {
      "epoch": "2026-03-28T19:29:21.036192Z",
      "apogee_km": 574.4120272113187,
      "perigee_km": 569.6966004125488,
      "latitude_deg": -3.33714846745358e-05,
      "longitude_deg": -2.5112908198775674,
      "height_km": 574.5252552145736,
      "semi_major_axis_km": 6950.1913138119335,
      "eccentricity": 0.00033923,
      "inclination_deg": 69.9987,
      "raan_deg": 116.0535,
      "arg_perigee_deg": 268.9503,
      "mean_anomaly_deg": 91.1267,
      "mean_motion_rev_day": 14.9833051
    },
    {
      "epoch": "2026-03-29T05:06:09.320832Z",
      "apogee_km": 574.4620436614041,
      "perigee_km": 569.6441718786982,
      "latitude_deg": 1.4219117819952888e-05,
      "longitude_deg": -148.11716837516627,
      "height_km": 574.5020966528099,
      "semi_major_axis_km": 6950.19010777005,
      "eccentricity": 0.0003466,
      "inclination_deg": 69.9983,
      "raan_deg": 115.0436,
      "arg_perigee_deg": 269.4956,
      "mean_anomaly_deg": 90.5806,
      "mean_motion_rev_day": 14.983309
    },
    {
      "epoch": "2026-03-30T01:55:54.086304Z",
      "apogee_km": 574.4512751015991,
      "perigee_km": 569.645916780566,
      "latitude_deg": -8.487737348816354e-05,
      "longitude_deg": -103.59764735976023,
      "height_km": 574.5052425881117,
      "semi_major_axis_km": 6950.185595941082,
      "eccentricity": 0.0003457,
      "inclination_deg": 69.9984,
      "raan_deg": 112.8551,
      "arg_perigee_deg": 269.3119,
      "mean_anomaly_deg": 90.7643,
      "mean_motion_rev_day": 14.98332359
    },
    {
      "epoch": "2026-03-30T05:08:10.190976Z",
      "apogee_km": 574.4520897516713,
      "perigee_km": 569.6439517543149,
      "latitude_deg": -6.343855947237595e-05,
      "longitude_deg": -152.1329452954568,
      "height_km": 574.5057291465323,
      "semi_major_axis_km": 6950.185020752993,
      "eccentricity": 0.0003459,
      "inclination_deg": 69.9984,
      "raan_deg": 112.5185,
      "arg_perigee_deg": 269.287,
      "mean_anomaly_deg": 90.7892,
      "mean_motion_rev_day": 14.98332545
    },
    {
      "epoch": "2026-03-30T11:32:42.524736Z",
      "apogee_km": 574.4673053497836,
      "perigee_km": 569.6616580372811,
      "latitude_deg": 1.3336063531763303e-05,
      "longitude_deg": 110.79585128498384,
      "height_km": 574.4637546508382,
      "semi_major_axis_km": 6950.201481693532,
      "eccentricity": 0.00034572,
      "inclination_deg": 69.9985,
      "raan_deg": 111.8452,
      "arg_perigee_deg": 270.6797,
      "mean_anomaly_deg": 89.3966,
      "mean_motion_rev_day": 14.98327222
    },
    {
      "epoch": "2026-03-31T17:59:17.100672Z",
      "apogee_km": 574.4353657582969,
      "perigee_km": 569.7620272759586,
      "latitude_deg": 1.1837290205183896e-05,
      "longitude_deg": 9.703938966070464,
      "height_km": 574.462332883139,
      "semi_major_axis_km": 6950.2356965171275,
      "eccentricity": 0.0003362,
      "inclination_deg": 69.999,
      "raan_deg": 108.6476,
      "arg_perigee_deg": 271.5712,
      "mean_anomaly_deg": 88.5062,
      "mean_motion_rev_day": 14.98316158
    }
  ]
}